0 SL-16 DEB
1 28356U 04021E   13284.18382144  .00000060  00000-0  10097-3 0  4812
2 28356 071.0666 202.5430 0223916 296.8620 171.6736 13.68418560465945
0 SL-16 DEB
1 28356U 04021E   13286.45075587  .00000073  00000-0  11347-3 0  4828
2 28356 071.0666 198.1505 0223909 293.6848 179.2529 13.68418637466251
0 SL-16 DEB
1 28356U 04021E   13288.85335053  .00000108  00000-0  14855-3 0  4838
2 28356 071.0662 193.4953 0223923 290.3017 135.1518 13.68419375466585
0 SL-16 DEB
1 28356U 04021E   13291.12819108  .00000090  00000-0  13025-3 0  4849
2 28356 071.0658 189.0875 0223937 287.0998 181.6997 13.68420168466893
0 SL-16 DEB
1 28356U 04021E   13293.16775590  .00000072  00000-0  11292-3 0  4856
2 28356 071.0655 185.1354 0223942 284.2357 149.2064 13.68420764467172
0 SL-16 DEB
1 28356U 04021E   13295.87277934  .00000056  00000-0  97397-4 0  4869
2 28356 071.0653 179.8937 0223910 280.4355 154.9708 13.68421482467545
